[{"OBJECT_NAME":"STARLINK-36646","OBJECT_ID":"2026-033C","EPOCH":"2026-03-10T00:12:13.019328","MEAN_MOTION":15.8212419,"ECCENTRICITY":0.0001881,"INCLINATION":42.9983,"RA_OF_ASC_NODE":269.5506,"ARG_OF_PERICENTER":264.37,"MEAN_ANOMALY":95.6957,"EPHEMERIS_TYPE":0,"CLASSIFICATION_TYPE":"U","NORAD_CAT_ID":67823,"ELEMENT_SET_NO":999,"REV_AT_EPOCH":467,"BSTAR":0.0014504,"MEAN_MOTION_DOT":0.00317968,"MEAN_MOTION_DDOT":0},{"OBJECT_NAME":"STARLINK-36647","OBJECT_ID":"2026-033D","EPOCH":"2026-03-10T00:11:08.215008","MEAN_MOTION":15.82144721,"ECCENTRICITY":0.0002337,"INCLINATION":42.9984,"RA_OF_ASC_NODE":269.5445,"ARG_OF_PERICENTER":279.4556,"MEAN_ANOMALY":80.6051,"EPHEMERIS_TYPE":0,"CLASSIFICATION_TYPE":"U","NORAD_CAT_ID":67824,"ELEMENT_SET_NO":999,"REV_AT_EPOCH":467,"BSTAR":0.0018052,"MEAN_MOTION_DOT":0.00400088,"MEAN_MOTION_DDOT":0},{"OBJECT_NAME":"STARLINK-36648","OBJECT_ID":"2026-033E","EPOCH":"2026-03-10T00:10:03.230976","MEAN_MOTION":15.82150307,"ECCENTRICITY":0.0002623,"INCLINATION":42.9984,"RA_OF_ASC_NODE":269.5384,"ARG_OF_PERICENTER":256.0984,"MEAN_ANOMALY":103.9596,"EPHEMERIS_TYPE":0,"CLASSIFICATION_TYPE":"U","NORAD_CAT_ID":67825,"ELEMENT_SET_NO":999,"REV_AT_EPOCH":467,"BSTAR":0.001749,"MEAN_MOTION_DOT":0.00387127,"MEAN_MOTION_DDOT":0},{"OBJECT_NAME":"STARLINK-35865","OBJECT_ID":"2026-033F","EPOCH":"2026-03-09T22:38:04.136352","MEAN_MOTION":15.82109633,"ECCENTRICITY":0.0002081,"INCLINATION":42.9983,"RA_OF_ASC_NODE":269.918,"ARG_OF_PERICENTER":256.8542,"MEAN_ANOMALY":103.2098,"EPHEMERIS_TYPE":0,"CLASSIFICATION_TYPE":"U","NORAD_CAT_ID":67826,"ELEMENT_SET_NO":999,"REV_AT_EPOCH":466,"BSTAR":0.0012998,"MEAN_MOTION_DOT":0.00283558,"MEAN_MOTION_DDOT":0},{"OBJECT_NAME":"STARLINK-36289","OBJECT_ID":"2026-033G","EPOCH":"2026-03-10T00:07:54.076800","MEAN_MOTION":15.82096406,"ECCENTRICITY":0.0001982,"INCLINATION":42.9984,"RA_OF_ASC_NODE":269.5261,"ARG_OF_PERICENTER":259.3302,"MEAN_ANOMALY":100.7347,"EPHEMERIS_TYPE":0,"CLASSIFICATION_TYPE":"U","NORAD_CAT_ID":67827,"ELEMENT_SET_NO":999,"REV_AT_EPOCH":467,"BSTAR":0.0011315,"MEAN_MOTION_DOT":0.00245532,"MEAN_MOTION_DDOT":0},{"OBJECT_NAME":"STARLINK-36670","OBJECT_ID":"2026-033H","EPOCH":"2026-03-10T00:06:49.351968","MEAN_MOTION":15.8211803,"ECCENTRICITY":0.0001917,"INCLINATION":42.9986,"RA_OF_ASC_NODE":269.5204,"ARG_OF_PERICENTER":268.944,"MEAN_ANOMALY":91.1212,"EPHEMERIS_TYPE":0,"CLASSIFICATION_TYPE":"U","NORAD_CAT_ID":67828,"ELEMENT_SET_NO":999,"REV_AT_EPOCH":467,"BSTAR":0.0014558,"MEAN_MOTION_DOT":0.00319094,"MEAN_MOTION_DDOT":0},{"OBJECT_NAME":"STARLINK-36144","OBJECT_ID":"2026-033J","EPOCH":"2026-03-10T00:05:44.564928","MEAN_MOTION":15.82096351,"ECCENTRICITY":0.0002046,"INCLINATION":42.9982,"RA_OF_ASC_NODE":269.5129,"ARG_OF_PERICENTER":270.4429,"MEAN_ANOMALY":89.6209,"EPHEMERIS_TYPE":0,"CLASSIFICATION_TYPE":"U","NORAD_CAT_ID":67829,"ELEMENT_SET_NO":999,"REV_AT_EPOCH":467,"BSTAR":0.0011404,"MEAN_MOTION_DOT":0.00247513,"MEAN_MOTION_DDOT":0},{"OBJECT_NAME":"STARLINK-36611","OBJECT_ID":"2026-033K","EPOCH":"2026-03-10T00:04:39.742464","MEAN_MOTION":15.82116872,"ECCENTRICITY":0.0002078,"INCLINATION":42.9985,"RA_OF_ASC_NODE":269.5079,"ARG_OF_PERICENTER":270.8262,"MEAN_ANOMALY":89.2372,"EPHEMERIS_TYPE":0,"CLASSIFICATION_TYPE":"U","NORAD_CAT_ID":67830,"ELEMENT_SET_NO":999,"REV_AT_EPOCH":467,"BSTAR":0.0013603,"MEAN_MOTION_DOT":0.00297355,"MEAN_MOTION_DDOT":0},{"OBJECT_NAME":"STARLINK-36661","OBJECT_ID":"2026-033L","EPOCH":"2026-03-10T00:03:35.155872","MEAN_MOTION":15.82108507,"ECCENTRICITY":0.0002602,"INCLINATION":42.9981,"RA_OF_ASC_NODE":269.5016,"ARG_OF_PERICENTER":265.6555,"MEAN_ANOMALY":94.4019,"EPHEMERIS_TYPE":0,"CLASSIFICATION_TYPE":"U","NORAD_CAT_ID":67831,"ELEMENT_SET_NO":999,"REV_AT_EPOCH":467,"BSTAR":0.0013608,"MEAN_MOTION_DOT":0.00297349,"MEAN_MOTION_DDOT":0},{"OBJECT_NAME":"STARLINK-36662","OBJECT_ID":"2026-033M","EPOCH":"2026-03-10T00:04:19.394400","MEAN_MOTION":15.8455428,"ECCENTRICITY":0.0001758,"INCLINATION":42.9967,"RA_OF_ASC_NODE":268.5958,"ARG_OF_PERICENTER":280.0009,"MEAN_ANOMALY":80.0665,"EPHEMERIS_TYPE":0,"CLASSIFICATION_TYPE":"U","NORAD_CAT_ID":67832,"ELEMENT_SET_NO":999,"REV_AT_EPOCH":468,"BSTAR":0.0017264,"MEAN_MOTION_DOT":0.00430292,"MEAN_MOTION_DDOT":0},{"OBJECT_NAME":"STARLINK-36659","OBJECT_ID":"2026-033N","EPOCH":"2026-03-10T00:02:30.198624","MEAN_MOTION":15.82114874,"ECCENTRICITY":0.0002265,"INCLINATION":42.9982,"RA_OF_ASC_NODE":269.4952,"ARG_OF_PERICENTER":257.0096,"MEAN_ANOMALY":103.0523,"EPHEMERIS_TYPE":0,"CLASSIFICATION_TYPE":"U","NORAD_CAT_ID":67833,"ELEMENT_SET_NO":999,"REV_AT_EPOCH":467,"BSTAR":0.0012113,"MEAN_MOTION_DOT":0.00263674,"MEAN_MOTION_DDOT":0},{"OBJECT_NAME":"STARLINK-36655","OBJECT_ID":"2026-033P","EPOCH":"2026-03-10T00:01:25.412448","MEAN_MOTION":15.82102698,"ECCENTRICITY":0.0002381,"INCLINATION":42.9981,"RA_OF_ASC_NODE":269.4888,"ARG_OF_PERICENTER":246.5448,"MEAN_ANOMALY":113.5173,"EPHEMERIS_TYPE":0,"CLASSIFICATION_TYPE":"U","NORAD_CAT_ID":67834,"ELEMENT_SET_NO":999,"REV_AT_EPOCH":467,"BSTAR":0.0010423,"MEAN_MOTION_DOT":0.00225674,"MEAN_MOTION_DDOT":0},{"OBJECT_NAME":"STARLINK-36657","OBJECT_ID":"2026-033Q","EPOCH":"2026-03-10T00:00:20.835360","MEAN_MOTION":15.82124307,"ECCENTRICITY":0.000192,"INCLINATION":42.9983,"RA_OF_ASC_NODE":269.4839,"ARG_OF_PERICENTER":284.7569,"MEAN_ANOMALY":75.309,"EPHEMERIS_TYPE":0,"CLASSIFICATION_TYPE":"U","NORAD_CAT_ID":67835,"ELEMENT_SET_NO":999,"REV_AT_EPOCH":467,"BSTAR":0.0014565,"MEAN_MOTION_DOT":0.00319362,"MEAN_MOTION_DDOT":0},{"OBJECT_NAME":"STARLINK-36650","OBJECT_ID":"2026-033R","EPOCH":"2026-03-09T23:59:15.974016","MEAN_MOTION":15.82105397,"ECCENTRICITY":0.0002202,"INCLINATION":42.9981,"RA_OF_ASC_NODE":269.4762,"ARG_OF_PERICENTER":262.4321,"MEAN_ANOMALY":97.6301,"EPHEMERIS_TYPE":0,"CLASSIFICATION_TYPE":"U","NORAD_CAT_ID":67836,"ELEMENT_SET_NO":999,"REV_AT_EPOCH":467,"BSTAR":0.0011183,"MEAN_MOTION_DOT":0.00242673,"MEAN_MOTION_DDOT":0},{"OBJECT_NAME":"STARLINK-36649","OBJECT_ID":"2026-033S","EPOCH":"2026-03-09T23:58:11.182656","MEAN_MOTION":15.82135357,"ECCENTRICITY":0.0002051,"INCLINATION":42.9978,"RA_OF_ASC_NODE":269.4701,"ARG_OF_PERICENTER":263.4028,"MEAN_ANOMALY":96.661,"EPHEMERIS_TYPE":0,"CLASSIFICATION_TYPE":"U","NORAD_CAT_ID":67837,"ELEMENT_SET_NO":999,"REV_AT_EPOCH":467,"BSTAR":0.0015563,"MEAN_MOTION_DOT":0.00342361,"MEAN_MOTION_DDOT":0},{"OBJECT_NAME":"STARLINK-36654","OBJECT_ID":"2026-033T","EPOCH":"2026-03-09T23:57:06.387840","MEAN_MOTION":15.82089282,"ECCENTRICITY":0.0002202,"INCLINATION":42.9985,"RA_OF_ASC_NODE":269.4636,"ARG_OF_PERICENTER":257.7916,"MEAN_ANOMALY":102.271,"EPHEMERIS_TYPE":0,"CLASSIFICATION_TYPE":"U","NORAD_CAT_ID":67838,"ELEMENT_SET_NO":999,"REV_AT_EPOCH":467,"BSTAR":0.0011877,"MEAN_MOTION_DOT":0.00258028,"MEAN_MOTION_DDOT":0},{"OBJECT_NAME":"STARLINK-36652","OBJECT_ID":"2026-033U","EPOCH":"2026-03-09T23:56:01.784832","MEAN_MOTION":15.82144627,"ECCENTRICITY":0.0002096,"INCLINATION":42.9981,"RA_OF_ASC_NODE":269.4578,"ARG_OF_PERICENTER":257.5916,"MEAN_ANOMALY":102.4721,"EPHEMERIS_TYPE":0,"CLASSIFICATION_TYPE":"U","NORAD_CAT_ID":67839,"ELEMENT_SET_NO":999,"REV_AT_EPOCH":467,"BSTAR":0.0015766,"MEAN_MOTION_DOT":0.00347178,"MEAN_MOTION_DDOT":0},{"OBJECT_NAME":"STARLINK-36651","OBJECT_ID":"2026-033V","EPOCH":"2026-03-09T23:54:56.979648","MEAN_MOTION":15.8213097,"ECCENTRICITY":0.0002518,"INCLINATION":42.9981,"RA_OF_ASC_NODE":269.451,"ARG_OF_PERICENTER":252.6679,"MEAN_ANOMALY":107.3917,"EPHEMERIS_TYPE":0,"CLASSIFICATION_TYPE":"U","NORAD_CAT_ID":67840,"ELEMENT_SET_NO":999,"REV_AT_EPOCH":467,"BSTAR":0.0014838,"MEAN_MOTION_DOT":0.00325692,"MEAN_MOTION_DDOT":0},{"OBJECT_NAME":"STARLINK-36656","OBJECT_ID":"2026-033W","EPOCH":"2026-03-09T23:53:52.235808","MEAN_MOTION":15.8214418,"ECCENTRICITY":0.0002022,"INCLINATION":42.9978,"RA_OF_ASC_NODE":269.4454,"ARG_OF_PERICENTER":263.4794,"MEAN_ANOMALY":96.5848,"EPHEMERIS_TYPE":0,"CLASSIFICATION_TYPE":"U","NORAD_CAT_ID":67841,"ELEMENT_SET_NO":999,"REV_AT_EPOCH":467,"BSTAR":0.001603,"MEAN_MOTION_DOT":0.00353265,"MEAN_MOTION_DDOT":0},{"OBJECT_NAME":"STARLINK-36653","OBJECT_ID":"2026-033X","EPOCH":"2026-03-09T23:52:47.734752","MEAN_MOTION":15.82138174,"ECCENTRICITY":0.0002029,"INCLINATION":42.9979,"RA_OF_ASC_NODE":269.4392,"ARG_OF_PERICENTER":262.9645,"MEAN_ANOMALY":97.0996,"EPHEMERIS_TYPE":0,"CLASSIFICATION_TYPE":"U","NORAD_CAT_ID":67842,"ELEMENT_SET_NO":999,"REV_AT_EPOCH":467,"BSTAR":0.0016836,"MEAN_MOTION_DOT":0.00371748,"MEAN_MOTION_DDOT":0},{"OBJECT_NAME":"STARLINK-36589","OBJECT_ID":"2026-033Y","EPOCH":"2026-03-09T23:51:42.888096","MEAN_MOTION":15.82116261,"ECCENTRICITY":0.0002087,"INCLINATION":42.9977,"RA_OF_ASC_NODE":269.4323,"ARG_OF_PERICENTER":250.8603,"MEAN_ANOMALY":109.2043,"EPHEMERIS_TYPE":0,"CLASSIFICATION_TYPE":"U","NORAD_CAT_ID":67843,"ELEMENT_SET_NO":999,"REV_AT_EPOCH":467,"BSTAR":0.0012613,"MEAN_MOTION_DOT":0.00274945,"MEAN_MOTION_DDOT":0},{"OBJECT_NAME":"STARLINK-36598","OBJECT_ID":"2026-033Z","EPOCH":"2026-03-09T23:50:38.265216","MEAN_MOTION":15.82154324,"ECCENTRICITY":0.0002048,"INCLINATION":42.9981,"RA_OF_ASC_NODE":269.4275,"ARG_OF_PERICENTER":271.9135,"MEAN_ANOMALY":88.1502,"EPHEMERIS_TYPE":0,"CLASSIFICATION_TYPE":"U","NORAD_CAT_ID":67844,"ELEMENT_SET_NO":999,"REV_AT_EPOCH":467,"BSTAR":0.001783,"MEAN_MOTION_DOT":0.00395096,"MEAN_MOTION_DDOT":0},{"OBJECT_NAME":"STARLINK-36606","OBJECT_ID":"2026-033AA","EPOCH":"2026-03-09T22:18:39.690720","MEAN_MOTION":15.82133261,"ECCENTRICITY":0.0001334,"INCLINATION":42.9978,"RA_OF_ASC_NODE":269.807,"ARG_OF_PERICENTER":333.7804,"MEAN_ANOMALY":26.3,"EPHEMERIS_TYPE":0,"CLASSIFICATION_TYPE":"U","NORAD_CAT_ID":67845,"ELEMENT_SET_NO":999,"REV_AT_EPOCH":466,"BSTAR":0.0021531,"MEAN_MOTION_DOT":0.00481643,"MEAN_MOTION_DDOT":0}]
